FLOCK 4V-4              
1 46314U 20061AU  21274.72996944  .00001883  00000-0  11476-3 0  9995
2 46314  97.4807 346.1924 0003454  22.0490 338.0888 15.11564360 59427
FLOCK 4V-2              
1 46321U 20061BB  21275.15574377  .00003907  00000-0  23103-3 0  9992
2 46321  97.4808 346.7070 0003435  24.2549 335.8843 15.12032655 59370
FLOCK 4V-3              
1 46322U 20061BC  21274.73130130  .00001679  00000-0  10282-3 0  9999
2 46322  97.4809 346.1908 0003306  24.5772 335.5615 15.11522877 59388
FLOCK 4V-16             
1 46527U 20061BD  21274.79610661  .00006092  00000-0  31854-3 0  9996
2 46527  97.4320 346.1296 0007080 308.4992  51.5605 15.16205427 55647
FLOCK 4V-15             
1 46528U 20061BE  21274.77586961  .00002225  00000-0  11645-3 0  9990
2 46528  97.4284 346.5773 0002681   8.5171 351.6107 15.16856648 56021
FLOCK 4V-17             
1 46529U 20061BF  21275.46726337  .00002461  00000-0  12858-3 0  9990
2 46529  97.4255 347.0470 0002051 344.9150  15.2022 15.16810149 55322
FLOCK 4V-21             
1 46596U 20061BK  21275.44472965  .00001803  00000-0  95341-4 0  9995
2 46596  97.4234 346.8356 0002664 301.8336  58.2638 15.16719155 53470
FLOCK 4V-18             
1 46597U 20061BG  21274.77320454  .00003541  00000-0  18459-3 0  9991
2 46597  97.4357 346.4821 0006126 318.0603  42.0161 15.16600472 54580
FLOCK 4V-19             
1 46609U 20061BH  21275.47063805  .00001783  00000-0  94218-4 0  9991
2 46609  97.4238 346.9757 0002022 308.5828  51.5224 15.16757914 54252
FLOCK 4V-20             
1 46612U 20061BJ  21275.13259614  .00006367  00000-0  33011-3 0  9999
2 46612  97.4345 346.7024 0006426 323.0586  37.0204 15.16490145 53699
FLOCK 4V-22             
1 46735U 20061BL  21274.96854808  .00005278  00000-0  27211-3 0  9996
2 46735  97.4193 346.0737 0005104 317.6977  42.3905 15.16773145 52516
FLOCK 4V-23             
1 46737U 20061BM  21274.72875987  .00007319  00000-0  37564-3 0  9993
2 46737  97.4250 346.1903 0003218 296.5539  63.5364 15.16811381 52419
FLOCK 4V-24             
1 46738U 20061BN  21274.77795025  .00003569  00000-0  18615-3 0  9992
2 46738  97.4369 346.4643 0006317 337.5107  22.5838 15.16573477 51999
FLOCK 4V-25             
1 46812U 20061BP  21274.95132864  .00002045  00000-0  10746-3 0  9996
2 46812  97.4253 346.4918 0004026 294.4731  65.6132 15.16800071 51660
FLOCK 4E'-1             
1 46813U 20077A   21275.44951315  .00005755  00000-0  29088-3 0  9999
2 46813  97.4589 337.0364 0011255 229.0427 130.9833 15.17396129 51302
FLOCK 4E'-7             
1 46814U 20077B   21275.46786886  .00005448  00000-0  27459-3 0  9990
2 46814  97.4590 337.1693 0012191 225.2052 134.8191 15.17509043 51315
FLOCK 4E'-9             
1 46815U 20077C   21275.48218745  .00007032  00000-0  34955-3 0  9997
2 46815  97.4554 337.1429 0011337 220.5397 139.4993 15.17898424 51320
FLOCK 4E'-8             
1 46816U 20077D   21275.45127095  .00002710  00000-0  13737-3 0  9995
2 46816  97.4607 337.4175 0009644 212.9009 147.1626 15.17783154 51326
FLOCK 4E'-5             
1 46817U 20077E   21275.42889154  .00004233  00000-0  21064-3 0  9998
2 46817  97.4610 337.5999 0014004 209.5485 150.4959 15.18066879 51338
FLOCK 4E'-3             
1 46819U 20077G   21275.44965707  .00002175  00000-0  10968-3 0  9995
2 46819  97.4585 337.6159 0014796 203.2482 156.8084 15.18130034 51341
FLOCK 4E'-2             
1 46820U 20077H   21275.47423194  .00002132  00000-0  10739-3 0  9998
2 46820  97.4633 337.9467 0013802 193.1182 166.9695 15.18193934 51352
FLOCK 4E'-4             
1 46821U 20077J   21275.44094877  .00002107  00000-0  10591-3 0  9996
2 46821  97.4596 337.8187 0014589 190.6875 169.4051 15.18269151 51318
FLOCK 4E'-6             
1 46822U 20077K   21274.92768492  .00002087  00000-0  10558-3 0  9990
2 46822  97.4547 336.8943 0011575 202.8540 157.2222 15.18083122 51262
FLOCK 4V-26             
1 46825U 20061BQ  21274.92581067  .00005030  00000-0  26165-3 0  9999
2 46825  97.4356 346.5586 0005958 340.9327  19.1708 15.16480170 51200
FLOCK 4S-22             
1 47452U 21006AR  21274.87448491  .00001634  00000-0  95546-4 0  9999
2 47452  97.4827 334.2541 0013064  91.2551 269.0177 15.13196325 38144
FLOCK 4S-21             
1 47456U 21006AV  21275.40536732  .00001453  00000-0  85386-4 0  9999
2 47456  97.4834 334.7985 0012898  89.5562 270.7147 15.13197870 38220
FLOCK 4S-11             
1 47462U 21006BB  21275.40078438  .00001444  00000-0  87827-4 0  9992
2 47462  97.4792 334.2275 0010144 107.9845 252.2492 15.11963448 38192
FLOCK 4S-33             
1 47469U 21006BJ  21274.88718148  .00004561  00000-0  26443-3 0  9998
2 47469  97.4796 333.8325 0009430 106.1429 254.0840 15.12638149 38127
FLOCK 4S-12             
1 47471U 21006BL  21275.41276076  .00003230  00000-0  18826-3 0  9998
2 47471  97.4828 334.4634 0010073 106.9847 253.2489 15.12653138 38207
FLOCK 4S-13             
1 47472U 21006BM  21275.13217433  .00005059  00000-0  29184-3 0  9990
2 47472  97.4851 334.3017 0010107 106.0801 254.1543 15.12760550 38160
FLOCK 4S-35             
1 47473U 21006BN  21275.39975801  .00003884  00000-0  22507-3 0  9995
2 47473  97.4840 334.5263 0009588 102.5728 257.6576 15.12743835 38200
FLOCK 4S-8              
1 47474U 21006BP  21275.13536105  .00004828  00000-0  27878-3 0  9993
2 47474  97.4768 334.0281 0010200 106.4542 253.7810 15.12746014 38160
FLOCK 4S-31             
1 47475U 21006BQ  21275.39871641  .00004195  00000-0  24244-3 0  9990
2 47475  97.4775 334.3128 0009572 103.3428 256.8871 15.12796650 38208
FLOCK 4S-34             
1 47477U 21006BS  21275.40436785  .00003753  00000-0  21767-3 0  9996
2 47477  97.4837 334.5105 0009515 102.8543 257.3752 15.12735464 38205
FLOCK 4S-9              
1 47478U 21006BT  21275.40555718  .00003476  00000-0  20179-3 0  9993
2 47478  97.4779 334.3160 0010110 106.6046 253.6296 15.12741586 38207
FLOCK 4S-32             
1 47479U 21006BU  21274.87919712  .00004321  00000-0  24999-3 0  9996
2 47479  97.4784 333.8066 0009487 106.5711 253.6563 15.12740229 38127
FLOCK 4S-39             
1 47490U 21006CF  21274.64967825  .00003041  00000-0  17551-3 0  9996
2 47490  97.4871 334.0802 0012192  95.7450 264.5171 15.13030476 38105
FLOCK 4S-4              
1 47491U 21006CG  21274.84758728  .00004731  00000-0  27071-3 0  9994
2 47491  97.4754 333.8967 0011972  93.1071 267.1531 15.13069135 38137
FLOCK 4S-17             
1 47492U 21006CH  21274.90855792  .00001811  00000-0  10595-3 0  9990
2 47492  97.4871 334.3538 0012302  93.7798 266.4840 15.13046509 38144
FLOCK 4S-3              
1 47494U 21006CK  21274.85598826  .00001826  00000-0  10739-3 0  9994
2 47494  97.4761 333.9164 0012127  92.1366 268.1254 15.12856446 38138
FLOCK 4S-27             
1 47495U 21006CL  21275.43359327  .00001554  00000-0  91432-4 0  9999
2 47495  97.4757 334.5165 0012482  91.9537 268.3123 15.13052278 38222
FLOCK 4S-18             
1 47496U 21006CM  21274.90362254  .00001682  00000-0  98596-4 0  9994
2 47496  97.4861 334.3344 0012450  93.4006 266.8650 15.13070698 38144
FLOCK 4S-26             
1 47497U 21006CN  21275.42885152  .00001502  00000-0  88426-4 0  9992
2 47497  97.4761 334.5340 0012594  91.6140 268.6534 15.13080591 38223
FLOCK 4S-2              
1 47498U 21006CP  21274.89379618  .00002577  00000-0  14906-3 0  9992
2 47498  97.4767 334.0238 0012246  90.7259 269.5375 15.13089798 38148
FLOCK 4S-40             
1 47499U 21006CQ  21274.89713524  .00003165  00000-0  18203-3 0  9999
2 47499  97.4863 334.3331 0012577  94.1055 266.1614 15.13128577 38140
FLOCK 4S-19             
1 47500U 21006CR  21275.41910138  .00001397  00000-0  82437-4 0  9997
2 47500  97.4858 334.8603 0012566  90.4134 269.8537 15.13118998 38228
FLOCK 4S-28             
1 47514U 21006DE  21274.91193448  .00005189  00000-0  29823-3 0  9995
2 47514  97.4757 333.8252 0010255 101.8883 258.3498 15.12875479 39099
FLOCK 4S-5              
1 47515U 21006DF  21274.91020912  .00003216  00000-0  18618-3 0  9990
2 47515  97.4749 333.8083 0010578 103.5935 256.6475 15.12890611 38133
FLOCK 4S-16             
1 47516U 21006DG  21274.85231953  .00005664  00000-0  32546-3 0  9998
2 47516  97.4869 334.1186 0010280 104.5056 255.7316 15.12846975 39083
FLOCK 4S-6              
1 47518U 21006DJ  21275.45094229  .00004566  00000-0  26325-3 0  9998
2 47518  97.4762 334.3461 0010418 103.3931 256.8462 15.12829745 39188
FLOCK 4S-29             
1 47520U 21006DL  21274.85603151  .00005617  00000-0  32265-3 0  9992
2 47520  97.4767 333.7825 0009865 103.9907 256.2421 15.12866978 38127
FLOCK 4S-15             
1 47521U 21006DM  21274.84238585  .00002521  00000-0  14613-3 0  9995
2 47521  97.4858 334.1076 0010253 105.8120 254.4242 15.13054255 39099
FLOCK 4S-37             
1 47522U 21006DN  21275.12306218  .00004660  00000-0  26861-3 0  9991
2 47522  97.4854 334.3284 0009983 103.9605 256.2737 15.12831865 39137
FLOCK 4S-10             
1 47523U 21006DP  21275.41471638  .00004371  00000-0  25353-3 0  9997
2 47523  97.4791 334.3365 0010210 107.1378 253.0972 15.12636084 38205
FLOCK 4S-7              
1 47527U 21006DT  21275.39115539  .00004243  00000-0  24518-3 0  9993
2 47527  97.4763 334.2794 0010313 104.4696 255.7680 15.12786972 39163
FLOCK 4S-14             
1 47528U 21006DU  21275.39155287  .00004323  00000-0  24974-3 0  9993
2 47528  97.4858 334.5897 0010177 104.2122 256.0241 15.12787041 39161
FLOCK 4S-36             
1 47530U 21006DW  21275.46072926  .00004317  00000-0  24949-3 0  9997
2 47530  97.4848 334.6229 0009670 102.0875 258.1440 15.12779961 39177
FLOCK 4S-24             
1 47539U 21006DZ  21275.20863267  .00001432  00000-0  84263-4 0  9995
2 47539  97.4792 334.4627 0013069  90.2921 269.9808 15.13163555 38197
FLOCK 4S-20             
1 47540U 21006EA  21275.40983426  .00001319  00000-0  77934-4 0  9990
2 47540  97.4847 334.8342 0012759  89.8298 270.4395 15.13164831 37290
